[{"OBJECT_NAME":"STARLINK-32718","OBJECT_ID":"2025-003K","EPOCH":"2025-11-23T13:21:19.512576","MEAN_MOTION":15.27595186,"ECCENTRICITY":0.0001387,"INCLINATION":43.0022,"RA_OF_ASC_NODE":168.0367,"ARG_OF_PERICENTER":271.5583,"MEAN_ANOMALY":88.511,"EPHEMERIS_TYPE":0,"CLASSIFICATION_TYPE":"U","NORAD_CAT_ID":62496,"ELEMENT_SET_NO":999,"REV_AT_EPOCH":5032,"BSTAR":0.00095282,"MEAN_MOTION_DOT":0.00026062,"MEAN_MOTION_DDOT":0},{"OBJECT_NAME":"STARLINK-32729","OBJECT_ID":"2025-003L","EPOCH":"2025-11-23T22:57:22.455360","MEAN_MOTION":15.27603728,"ECCENTRICITY":3.04e-5,"INCLINATION":42.9982,"RA_OF_ASC_NODE":165.8659,"ARG_OF_PERICENTER":290.873,"MEAN_ANOMALY":69.2089,"EPHEMERIS_TYPE":0,"CLASSIFICATION_TYPE":"U","NORAD_CAT_ID":62497,"ELEMENT_SET_NO":999,"REV_AT_EPOCH":5050,"BSTAR":0.0010955,"MEAN_MOTION_DOT":0.00030028,"MEAN_MOTION_DDOT":0},{"OBJECT_NAME":"STARLINK-32739","OBJECT_ID":"2025-003M","EPOCH":"2025-11-23T23:19:35.493312","MEAN_MOTION":15.27632181,"ECCENTRICITY":0.0003239,"INCLINATION":42.998,"RA_OF_ASC_NODE":165.9801,"ARG_OF_PERICENTER":55.9748,"MEAN_ANOMALY":304.1411,"EPHEMERIS_TYPE":0,"CLASSIFICATION_TYPE":"U","NORAD_CAT_ID":62498,"ELEMENT_SET_NO":999,"REV_AT_EPOCH":5045,"BSTAR":0.001208,"MEAN_MOTION_DOT":0.00033184,"MEAN_MOTION_DDOT":0},{"OBJECT_NAME":"STARLINK-32714","OBJECT_ID":"2025-003N","EPOCH":"2025-11-21T23:21:25.098624","MEAN_MOTION":15.27620523,"ECCENTRICITY":0.00013015,"INCLINATION":42.9997,"RA_OF_ASC_NODE":177.6523,"ARG_OF_PERICENTER":256.7275,"MEAN_ANOMALY":103.3432,"EPHEMERIS_TYPE":0,"CLASSIFICATION_TYPE":"U","NORAD_CAT_ID":62499,"ELEMENT_SET_NO":999,"REV_AT_EPOCH":5019,"BSTAR":0.0014801224,"MEAN_MOTION_DOT":0.00040743,"MEAN_MOTION_DDOT":0},{"OBJECT_NAME":"STARLINK-32685","OBJECT_ID":"2025-003P","EPOCH":"2025-11-23T12:50:04.992000","MEAN_MOTION":15.27592654,"ECCENTRICITY":0.00032,"INCLINATION":42.9977,"RA_OF_ASC_NODE":168.7281,"ARG_OF_PERICENTER":282.5235,"MEAN_ANOMALY":77.5259,"EPHEMERIS_TYPE":0,"CLASSIFICATION_TYPE":"U","NORAD_CAT_ID":62500,"ELEMENT_SET_NO":999,"REV_AT_EPOCH":5038,"BSTAR":0.0010073,"MEAN_MOTION_DOT":0.00027574,"MEAN_MOTION_DDOT":0},{"OBJECT_NAME":"STARLINK-32691","OBJECT_ID":"2025-003Q","EPOCH":"2025-11-23T23:17:43.185408","MEAN_MOTION":15.27619815,"ECCENTRICITY":0.0001364,"INCLINATION":42.9989,"RA_OF_ASC_NODE":165.9697,"ARG_OF_PERICENTER":259.1301,"MEAN_ANOMALY":100.9397,"EPHEMERIS_TYPE":0,"CLASSIFICATION_TYPE":"U","NORAD_CAT_ID":62501,"ELEMENT_SET_NO":999,"REV_AT_EPOCH":5049,"BSTAR":0.0011229,"MEAN_MOTION_DOT":0.00030804,"MEAN_MOTION_DDOT":0},{"OBJECT_NAME":"STARLINK-32788","OBJECT_ID":"2025-003R","EPOCH":"2025-11-23T23:12:10.846080","MEAN_MOTION":15.27598273,"ECCENTRICITY":5.51e-5,"INCLINATION":42.9992,"RA_OF_ASC_NODE":165.9436,"ARG_OF_PERICENTER":356.7511,"MEAN_ANOMALY":3.3337,"EPHEMERIS_TYPE":0,"CLASSIFICATION_TYPE":"U","NORAD_CAT_ID":62502,"ELEMENT_SET_NO":999,"REV_AT_EPOCH":5038,"BSTAR":0.0010887,"MEAN_MOTION_DOT":0.00029833,"MEAN_MOTION_DDOT":0},{"OBJECT_NAME":"STARLINK-32768","OBJECT_ID":"2025-003S","EPOCH":"2025-11-23T22:48:06.318432","MEAN_MOTION":15.2760076,"ECCENTRICITY":0.0002332,"INCLINATION":43.0035,"RA_OF_ASC_NODE":165.8206,"ARG_OF_PERICENTER":261.885,"MEAN_ANOMALY":98.1738,"EPHEMERIS_TYPE":0,"CLASSIFICATION_TYPE":"U","NORAD_CAT_ID":62503,"ELEMENT_SET_NO":999,"REV_AT_EPOCH":5038,"BSTAR":0.00098047,"MEAN_MOTION_DOT":0.00026834,"MEAN_MOTION_DDOT":0},{"OBJECT_NAME":"STARLINK-32792","OBJECT_ID":"2025-003T","EPOCH":"2025-11-23T13:10:13.174176","MEAN_MOTION":15.27580901,"ECCENTRICITY":0.0002982,"INCLINATION":43.0003,"RA_OF_ASC_NODE":167.9697,"ARG_OF_PERICENTER":275.8651,"MEAN_ANOMALY":84.1861,"EPHEMERIS_TYPE":0,"CLASSIFICATION_TYPE":"U","NORAD_CAT_ID":62504,"ELEMENT_SET_NO":999,"REV_AT_EPOCH":5032,"BSTAR":0.00089271,"MEAN_MOTION_DOT":0.00024387,"MEAN_MOTION_DDOT":0},{"OBJECT_NAME":"STARLINK-32725","OBJECT_ID":"2025-003U","EPOCH":"2025-11-23T13:12:04.620672","MEAN_MOTION":15.27575141,"ECCENTRICITY":0.0001562,"INCLINATION":43.0011,"RA_OF_ASC_NODE":167.9679,"ARG_OF_PERICENTER":261.3117,"MEAN_ANOMALY":98.7558,"EPHEMERIS_TYPE":0,"CLASSIFICATION_TYPE":"U","NORAD_CAT_ID":62505,"ELEMENT_SET_NO":999,"REV_AT_EPOCH":5032,"BSTAR":0.00082861,"MEAN_MOTION_DOT":0.00022606,"MEAN_MOTION_DDOT":0},{"OBJECT_NAME":"STARLINK-32681","OBJECT_ID":"2025-003V","EPOCH":"2025-11-23T12:27:20.591712","MEAN_MOTION":15.27600283,"ECCENTRICITY":0.0001237,"INCLINATION":42.9981,"RA_OF_ASC_NODE":150.0069,"ARG_OF_PERICENTER":202.4869,"MEAN_ANOMALY":157.5929,"EPHEMERIS_TYPE":0,"CLASSIFICATION_TYPE":"U","NORAD_CAT_ID":62506,"ELEMENT_SET_NO":999,"REV_AT_EPOCH":5064,"BSTAR":0.0012084,"MEAN_MOTION_DOT":0.0003316,"MEAN_MOTION_DDOT":0},{"OBJECT_NAME":"STARLINK-32679","OBJECT_ID":"2025-003W","EPOCH":"2025-11-24T00:05:47.531904","MEAN_MOTION":15.27630232,"ECCENTRICITY":0.0001067,"INCLINATION":42.9993,"RA_OF_ASC_NODE":166.1927,"ARG_OF_PERICENTER":257.9652,"MEAN_ANOMALY":102.108,"EPHEMERIS_TYPE":0,"CLASSIFICATION_TYPE":"U","NORAD_CAT_ID":62507,"ELEMENT_SET_NO":999,"REV_AT_EPOCH":5050,"BSTAR":0.00087869,"MEAN_MOTION_DOT":0.00024033,"MEAN_MOTION_DDOT":0},{"OBJECT_NAME":"STARLINK-32749","OBJECT_ID":"2025-003X","EPOCH":"2025-11-23T23:02:54.348000","MEAN_MOTION":15.27646807,"ECCENTRICITY":0.0001824,"INCLINATION":42.9995,"RA_OF_ASC_NODE":165.8949,"ARG_OF_PERICENTER":270.517,"MEAN_ANOMALY":89.5472,"EPHEMERIS_TYPE":0,"CLASSIFICATION_TYPE":"U","NORAD_CAT_ID":62508,"ELEMENT_SET_NO":999,"REV_AT_EPOCH":5038,"BSTAR":0.0014361,"MEAN_MOTION_DOT":0.00039551,"MEAN_MOTION_DDOT":0},{"OBJECT_NAME":"STARLINK-32744","OBJECT_ID":"2025-003Y","EPOCH":"2025-11-23T12:55:38.260128","MEAN_MOTION":15.27597608,"ECCENTRICITY":3.19e-5,"INCLINATION":42.9968,"RA_OF_ASC_NODE":168.7604,"ARG_OF_PERICENTER":241.6248,"MEAN_ANOMALY":118.4572,"EPHEMERIS_TYPE":0,"CLASSIFICATION_TYPE":"U","NORAD_CAT_ID":62509,"ELEMENT_SET_NO":999,"REV_AT_EPOCH":5031,"BSTAR":0.00076932,"MEAN_MOTION_DOT":0.0002098,"MEAN_MOTION_DDOT":0},{"OBJECT_NAME":"STARLINK-32701","OBJECT_ID":"2025-003Z","EPOCH":"2025-11-23T23:23:18.102912","MEAN_MOTION":15.27617259,"ECCENTRICITY":0.0004273,"INCLINATION":42.997,"RA_OF_ASC_NODE":166.0001,"ARG_OF_PERICENTER":66.6708,"MEAN_ANOMALY":293.4593,"EPHEMERIS_TYPE":0,"CLASSIFICATION_TYPE":"U","NORAD_CAT_ID":62510,"ELEMENT_SET_NO":999,"REV_AT_EPOCH":5038,"BSTAR":0.00092275,"MEAN_MOTION_DOT":0.0002525,"MEAN_MOTION_DDOT":0},{"OBJECT_NAME":"STARLINK-11452 [DTC]","OBJECT_ID":"2025-004A","EPOCH":"2025-11-24T01:04:54.416064","MEAN_MOTION":15.70831174,"ECCENTRICITY":9.13e-5,"INCLINATION":42.9989,"RA_OF_ASC_NODE":347.4996,"ARG_OF_PERICENTER":258.693,"MEAN_ANOMALY":101.3835,"EPHEMERIS_TYPE":0,"CLASSIFICATION_TYPE":"U","NORAD_CAT_ID":62511,"ELEMENT_SET_NO":999,"REV_AT_EPOCH":5151,"BSTAR":0.00199,"MEAN_MOTION_DOT":0.0026305,"MEAN_MOTION_DDOT":0}]
