STARLINK-32718          
1 62496U 25003K   25327.55647584  .00026062  00000+0  95282-3 0  9994
2 62496  43.0022 168.0367 0001387 271.5583  88.5110 15.27595186 50323
STARLINK-32729          
1 62497U 25003L   25327.95650990  .00030028  00000+0  10955-2 0  9994
2 62497  42.9982 165.8659 0000304 290.8730  69.2089 15.27603728 50505
STARLINK-32739          
1 62498U 25003M   25327.97193858  .00033184  00000+0  12080-2 0  9999
2 62498  42.9980 165.9801 0003239  55.9748 304.1411 15.27632181 50452
STARLINK-32714          
1 62499U 25003N   25325.97320716  .00040743  00000+0  14801-2 0  9995
2 62499  42.9997 177.6523 0001301 256.7275 103.3432 15.27620523 50196
STARLINK-32685          
1 62500U 25003P   25327.53478000  .00027574  00000+0  10073-2 0  9996
2 62500  42.9977 168.7281 0003200 282.5235  77.5259 15.27592654 50385
STARLINK-32691          
1 62501U 25003Q   25327.97063872  .00030804  00000+0  11229-2 0  9996
2 62501  42.9989 165.9697 0001364 259.1301 100.9397 15.27619815 50497
STARLINK-32788          
1 62502U 25003R   25327.96679220  .00029833  00000+0  10887-2 0  9995
2 62502  42.9992 165.9436 0000551 356.7511   3.3337 15.27598273 50389
STARLINK-32768          
1 62503U 25003S   25327.95007313  .00026834  00000+0  98047-3 0  9996
2 62503  43.0035 165.8206 0002332 261.8850  98.1738 15.27600760 50387
STARLINK-32792          
1 62504U 25003T   25327.54876359  .00024387  00000+0  89271-3 0  9996
2 62504  43.0003 167.9697 0002982 275.8651  84.1861 15.27580901 50325
STARLINK-32725          
1 62505U 25003U   25327.55005348  .00022606  00000+0  82861-3 0  9990
2 62505  43.0011 167.9679 0001562 261.3117  98.7558 15.27575141 50329
STARLINK-32681          
1 62506U 25003V   25327.51898833  .00033160  00000+0  12084-2 0  9992
2 62506  42.9981 150.0069 0001237 202.4869 157.5929 15.27600283 50646
STARLINK-32679          
1 62507U 25003W   25328.00402236  .00024033  00000+0  87869-3 0  9999
2 62507  42.9993 166.1927 0001067 257.9652 102.1080 15.27630232 50503
STARLINK-32749          
1 62508U 25003X   25327.96035125  .00039551  00000+0  14361-2 0  9990
2 62508  42.9995 165.8949 0001824 270.5170  89.5472 15.27646807 50387
STARLINK-32744          
1 62509U 25003Y   25327.53863727  .00020980  00000+0  76932-3 0  9990
2 62509  42.9968 168.7604 0000319 241.6248 118.4572 15.27597608 50311
STARLINK-32701          
1 62510U 25003Z   25327.97451508  .00025250  00000+0  92275-3 0  9993
2 62510  42.9970 166.0001 0004273  66.6708 293.4593 15.27617259 50386
STARLINK-11452 [DTC]    
1 62511U 25004A   25328.04507426  .00263050  00000+0  19900-2 0  9990
2 62511  42.9989 347.4996 0000913 258.6930 101.3835 15.70831174 51516
